STARLINK-32738          
1 63046U 25034T   26068.70969542  .00024789  00000+0  84609-3 0  9996
2 63046  53.1612 257.7598 0000613  28.0915 332.0119 15.30207624 59099
TEVEL2-3                
1 63218U 25052J   26068.64540225  .00020365  00000+0  69446-3 0  9991
2 63218  97.3994 324.7775 0004761 105.7353 254.4413 15.30377031 54855
